{
  "type": "FeatureCollection",
  "features": [
    {
      "type": "Feature",
      "properties": {
        "norad_id": 36046,
        "name": "COSMOS 2251 DEB",
        "group": "cosmos-2251-debris",
        "lat": 28.095368550083826,
        "lon": 84.81054542905565,
        "alt_km": 675.3320433923036,
        "timestamp": "2025-12-14T05:42:18.859770+00:00",
        "meta_object_name": "COSMOS 2251 DEB",
        "meta_object_id": "1993-036AXH",
        "meta_epoch": "2025-12-13T13:27:02.887776",
        "meta_mean_motion": 14.65277312,
        "meta_eccentricity": 0.00555987,
        "meta_inclination": 74.0166,
        "meta_ra_of_asc_node": 274.9164,
        "meta_arg_of_pericenter": 60.6505,
        "meta_mean_anomaly": 118.1595,
        "meta_ephemeris_type": 0,
        "meta_classification_type": "U",
        "meta_norad_cat_id": 36046,
        "meta_element_set_no": 999,
        "meta_rev_at_epoch": 64015,
        "meta_bstar": 0.000804374,
        "meta_mean_motion_dot": 4.408e-05,
        "meta_mean_motion_ddot": 0,
        "tle_line1": "1 36046U 93036AXH 25347.56045009  .00004408  00000+0  80437-3 0  9990",
        "tle_line2": "2 36046  74.0166 274.9164 0055598  60.6505 118.1595 14.65277312640156"
      },
      "geometry": {
        "type": "Point",
        "coordinates": [
          84.81054542905565,
          28.095368550083826
        ]
      }
    },
    {
      "type": "Feature",
      "properties": {
        "norad_id": 36047,
        "name": "COSMOS 2251 DEB",
        "group": "cosmos-2251-debris",
        "lat": -62.39783561516386,
        "lon": -175.67137895671218,
        "alt_km": 587.8203742891737,
        "timestamp": "2025-12-14T05:42:18.859780+00:00",
        "meta_object_name": "COSMOS 2251 DEB",
        "meta_object_id": "1993-036AXJ",
        "meta_epoch": "2025-12-13T09:20:40.596000",
        "meta_mean_motion": 14.96004971,
        "meta_eccentricity": 0.00082365,
        "meta_inclination": 74.0362,
        "meta_ra_of_asc_node": 332.8451,
        "meta_arg_of_pericenter": 359.1312,
        "meta_mean_anomaly": 0.9857,
        "meta_ephemeris_type": 0,
        "meta_classification_type": "U",
        "meta_norad_cat_id": 36047,
        "meta_element_set_no": 999,
        "meta_rev_at_epoch": 65949,
        "meta_bstar": 0.0037615034,
        "meta_mean_motion_dot": 0.00042457,
        "meta_mean_motion_ddot": 0,
        "tle_line1": "1 36047U 93036AXJ 25347.38935875  .00042457  00000+0  37615-2 0  9995",
        "tle_line2": "2 36047  74.0362 332.8451 0008236 359.1312   0.9857 14.96004971659496"
      },
      "geometry": {
        "type": "Point",
        "coordinates": [
          -175.67137895671218,
          -62.39783561516386
        ]
      }
    },
    {
      "type": "Feature",
      "properties": {
        "norad_id": 36048,
        "name": "COSMOS 2251 DEB",
        "group": "cosmos-2251-debris",
        "lat": -41.003332548447766,
        "lon": 130.92063023970337,
        "alt_km": 782.1997546454286,
        "timestamp": "2025-12-14T05:42:18.859790+00:00",
        "meta_object_name": "COSMOS 2251 DEB",
        "meta_object_id": "1993-036AXK",
        "meta_epoch": "2025-12-12T21:05:00.550176",
        "meta_mean_motion": 14.37852593,
        "meta_eccentricity": 0.00266374,
        "meta_inclination": 74.0569,
        "meta_ra_of_asc_node": 299.0293,
        "meta_arg_of_pericenter": 349.0674,
        "meta_mean_anomaly": 41.1669,
        "meta_ephemeris_type": 0,
        "meta_classification_type": "U",
        "meta_norad_cat_id": 36048,
        "meta_element_set_no": 999,
        "meta_rev_at_epoch": 85504,
        "meta_bstar": 0.00045621614,
        "meta_mean_motion_dot": 1.355e-05,
        "meta_mean_motion_ddot": 0,
        "tle_line1": "1 36048U 93036AXK 25346.87847859  .00001355  00000+0  45622-3 0  9993",
        "tle_line2": "2 36048  74.0569 299.0293 0026637 349.0674  41.1669 14.37852593855041"
      },
      "geometry": {
        "type": "Point",
        "coordinates": [
          130.92063023970337,
          -41.003332548447766
        ]
      }
    },
    {
      "type": "Feature",
      "properties": {
        "norad_id": 36049,
        "name": "COSMOS 2251 DEB",
        "group": "cosmos-2251-debris",
        "lat": 71.18911800988143,
        "lon": -120.89802591024285,
        "alt_km": 680.565023576678,
        "timestamp": "2025-12-14T05:42:18.859801+00:00",
        "meta_object_name": "COSMOS 2251 DEB",
        "meta_object_id": "1993-036AXL",
        "meta_epoch": "2025-12-12T15:28:50.877120",
        "meta_mean_motion": 14.62144824,
        "meta_eccentricity": 0.00107751,
        "meta_inclination": 74.03,
        "meta_ra_of_asc_node": 119.3632,
        "meta_arg_of_pericenter": 206.0125,
        "meta_mean_anomaly": 154.0501,
        "meta_ephemeris_type": 0,
        "meta_classification_type": "U",
        "meta_norad_cat_id": 36049,
        "meta_element_set_no": 999,
        "meta_rev_at_epoch": 85363,
        "meta_bstar": 0.0021295048,
        "meta_mean_motion_dot": 0.00010708,
        "meta_mean_motion_ddot": 0,
        "tle_line1": "1 36049U 93036AXL 25346.64503330  .00010708  00000+0  21295-2 0  9993",
        "tle_line2": "2 36049  74.0300 119.3632 0010775 206.0125 154.0501 14.62144824853636"
      },
      "geometry": {
        "type": "Point",
        "coordinates": [
          -120.89802591024285,
          71.18911800988143
        ]
      }
    },
    {
      "type": "Feature",
      "properties": {
        "norad_id": 36050,
        "name": "COSMOS 2251 DEB",
        "group": "cosmos-2251-debris",
        "lat": 20.900558717990567,
        "lon": -162.74766470645733,
        "alt_km": 585.4643258223487,
        "timestamp": "2025-12-14T05:42:18.859812+00:00",
        "meta_object_name": "COSMOS 2251 DEB",
        "meta_object_id": "1993-036AXM",
        "meta_epoch": "2025-12-13T07:12:52.072416",
        "meta_mean_motion": 15.0104813,
        "meta_eccentricity": 0.00886789,
        "meta_inclination": 74.0308,
        "meta_ra_of_asc_node": 192.882,
        "meta_arg_of_pericenter": 272.3797,
        "meta_mean_anomaly": 86.7239,
        "meta_ephemeris_type": 0,
        "meta_classification_type": "U",
        "meta_norad_cat_id": 36050,
        "meta_element_set_no": 999,
        "meta_rev_at_epoch": 67043,
        "meta_bstar": 0.00086975595,
        "meta_mean_motion_dot": 0.0001207,
        "meta_mean_motion_ddot": 0,
        "tle_line1": "1 36050U 93036AXM 25347.30060269  .00012070  00000+0  86976-3 0  9990",
        "tle_line2": "2 36050  74.0308 192.8820 0088678 272.3797  86.7239 15.01048130670430"
      },
      "geometry": {
        "type": "Point",
        "coordinates": [
          -162.74766470645733,
          20.900558717990567
        ]
      }
    },
    {
      "type": "Feature",
      "properties": {
        "norad_id": 36053,
        "name": "COSMOS 2251 DEB",
        "group": "cosmos-2251-debris",
        "lat": 48.497040646211694,
        "lon": 168.90125609345364,
        "alt_km": 681.7481065419624,
        "timestamp": "2025-12-14T05:42:18.859995+00:00",
        "meta_object_name": "COSMOS 2251 DEB",
        "meta_object_id": "1993-036AXQ",
        "meta_epoch": "2025-12-13T04:45:23.710176",
        "meta_mean_motion": 14.57191678,
        "meta_eccentricity": 0.0032546,
        "meta_inclination": 73.8709,
        "meta_ra_of_asc_node": 151.8055,
        "meta_arg_of_pericenter": 100.6659,
        "meta_mean_anomaly": 259.8172,
        "meta_ephemeris_type": 0,
        "meta_classification_type": "U",
        "meta_norad_cat_id": 36053,
        "meta_element_set_no": 999,
        "meta_rev_at_epoch": 87451,
        "meta_bstar": 0.0027691156,
        "meta_mean_motion_dot": 0.00012586,
        "meta_mean_motion_ddot": 0,
        "tle_line1": "1 36053U 93036AXQ 25347.19819109  .00012586  00000+0  27691-2 0  9995",
        "tle_line2": "2 36053  73.8709 151.8055 0032546 100.6659 259.8172 14.57191678874513"
      },
      "geometry": {
        "type": "Point",
        "coordinates": [
          168.90125609345364,
          48.497040646211694
        ]
      }
    },
    {
      "type": "Feature",
      "properties": {
        "norad_id": 36058,
        "name": "COSMOS 2251 DEB",
        "group": "cosmos-2251-debris",
        "lat": -6.121337122397593,
        "lon": -147.63189405420124,
        "alt_km": 671.3041339539013,
        "timestamp": "2025-12-14T05:42:18.860009+00:00",
        "meta_object_name": "COSMOS 2251 DEB",
        "meta_object_id": "1993-036AXV",
        "meta_epoch": "2025-12-09T21:09:28.031616",
        "meta_mean_motion": 14.58669067,
        "meta_eccentricity": 0.00447805,
        "meta_inclination": 74.0233,
        "meta_ra_of_asc_node": 38.9054,
        "meta_arg_of_pericenter": 173.9779,
        "meta_mean_anomaly": 186.1934,
        "meta_ephemeris_type": 0,
        "meta_classification_type": "U",
        "meta_norad_cat_id": 36058,
        "meta_element_set_no": 999,
        "meta_rev_at_epoch": 66069,
        "meta_bstar": 0.00079291916,
        "meta_mean_motion_dot": 3.72e-05,
        "meta_mean_motion_ddot": 0,
        "tle_line1": "1 36058U 93036AXV 25343.88157444  .00003720  00000+0  79292-3 0  9994",
        "tle_line2": "2 36058  74.0233  38.9054 0044780 173.9779 186.1934 14.58669067660699"
      },
      "geometry": {
        "type": "Point",
        "coordinates": [
          -147.63189405420124,
          -6.121337122397593
        ]
      }
    }
  ]
}